[{"OBJECT_NAME":"TELEOS-2","OBJECT_ID":"2023-057C","EPOCH":"2026-03-27T05:47:56.704992","MEAN_MOTION":14.96373585,"ECCENTRICITY":8.33e-5,"INCLINATION":9.989,"RA_OF_ASC_NODE":80.8632,"ARG_OF_PERICENTER":221.662,"MEAN_ANOMALY":138.353,"EPHEMERIS_TYPE":0,"CLASSIFICATION_TYPE":"U","NORAD_CAT_ID":56310,"ELEMENT_SET_NO":999,"REV_AT_EPOCH":16050,"BSTAR":8.9486e-6,"MEAN_MOTION_DOT":7.92e-6,"MEAN_MOTION_DDOT":0},{"OBJECT_NAME":"SNIPE 4","OBJECT_ID":"2023-072B","EPOCH":"2026-03-28T21:02:26.155104","MEAN_MOTION":15.39105806,"ECCENTRICITY":0.00048439,"INCLINATION":97.5342,"RA_OF_ASC_NODE":291.4884,"ARG_OF_PERICENTER":247.4044,"MEAN_ANOMALY":112.6689,"EPHEMERIS_TYPE":0,"CLASSIFICATION_TYPE":"U","NORAD_CAT_ID":56744,"ELEMENT_SET_NO":999,"REV_AT_EPOCH":15774,"BSTAR":0.00065575562,"MEAN_MOTION_DOT":0.00025385,"MEAN_MOTION_DDOT":0},{"OBJECT_NAME":"SNIPE 2","OBJECT_ID":"2023-072C","EPOCH":"2026-03-28T22:29:48.147648","MEAN_MOTION":15.42815127,"ECCENTRICITY":0.00039169,"INCLINATION":97.5345,"RA_OF_ASC_NODE":294.0869,"ARG_OF_PERICENTER":286.779,"MEAN_ANOMALY":73.3027,"EPHEMERIS_TYPE":0,"CLASSIFICATION_TYPE":"U","NORAD_CAT_ID":56745,"ELEMENT_SET_NO":999,"REV_AT_EPOCH":15785,"BSTAR":0.00069623885,"MEAN_MOTION_DOT":0.00030492,"MEAN_MOTION_DDOT":0},{"OBJECT_NAME":"2023-072G","OBJECT_ID":"2023-072G","EPOCH":"2026-03-28T22:12:44.898624","MEAN_MOTION":15.46112442,"ECCENTRICITY":0.0003089,"INCLINATION":97.5004,"RA_OF_ASC_NODE":292.8138,"ARG_OF_PERICENTER":269.1708,"MEAN_ANOMALY":90.9187,"EPHEMERIS_TYPE":0,"CLASSIFICATION_TYPE":"U","NORAD_CAT_ID":56749,"ELEMENT_SET_NO":999,"REV_AT_EPOCH":15804,"BSTAR":0.00067530588,"MEAN_MOTION_DOT":0.00033075,"MEAN_MOTION_DDOT":0},{"OBJECT_NAME":"OTTER PUP","OBJECT_ID":"2023-084B","EPOCH":"2026-03-28T21:55:26.850144","MEAN_MOTION":15.90498405,"ECCENTRICITY":0.00032246,"INCLINATION":97.5743,"RA_OF_ASC_NODE":245.8935,"ARG_OF_PERICENTER":230.4122,"MEAN_ANOMALY":129.6866,"EPHEMERIS_TYPE":0,"CLASSIFICATION_TYPE":"U","NORAD_CAT_ID":56933,"ELEMENT_SET_NO":999,"REV_AT_EPOCH":15654,"BSTAR":0.00086256324,"MEAN_MOTION_DOT":0.002624,"MEAN_MOTION_DDOT":2.7450393e-5},{"OBJECT_NAME":"GEISAT PRECURSOR","OBJECT_ID":"2023-084C","EPOCH":"2026-03-28T22:08:35.310624","MEAN_MOTION":15.33397849,"ECCENTRICITY":0.00046207,"INCLINATION":97.6083,"RA_OF_ASC_NODE":226.3669,"ARG_OF_PERICENTER":260.8319,"MEAN_ANOMALY":99.24,"EPHEMERIS_TYPE":0,"CLASSIFICATION_TYPE":"U","NORAD_CAT_ID":56934,"ELEMENT_SET_NO":999,"REV_AT_EPOCH":15522,"BSTAR":0.00034871712,"MEAN_MOTION_DOT":0.00011181,"MEAN_MOTION_DDOT":0},{"OBJECT_NAME":"BLACKJACK ACES-3","OBJECT_ID":"2023-084U","EPOCH":"2026-03-28T02:34:07.888800","MEAN_MOTION":15.18924346,"ECCENTRICITY":0.00016864,"INCLINATION":97.6084,"RA_OF_ASC_NODE":221.7629,"ARG_OF_PERICENTER":294.4683,"MEAN_ANOMALY":65.6375,"EPHEMERIS_TYPE":0,"CLASSIFICATION_TYPE":"U","NORAD_CAT_ID":56950,"ELEMENT_SET_NO":999,"REV_AT_EPOCH":15486,"BSTAR":8.0548223e-5,"MEAN_MOTION_DOT":1.611e-5,"MEAN_MOTION_DDOT":0},{"OBJECT_NAME":"BLACKJACK ACES-2","OBJECT_ID":"2023-084Z","EPOCH":"2026-03-27T21:58:15.113280","MEAN_MOTION":15.18908924,"ECCENTRICITY":0.000134,"INCLINATION":97.6065,"RA_OF_ASC_NODE":221.6601,"ARG_OF_PERICENTER":185.7203,"MEAN_ANOMALY":174.4016,"EPHEMERIS_TYPE":0,"CLASSIFICATION_TYPE":"U","NORAD_CAT_ID":56955,"ELEMENT_SET_NO":999,"REV_AT_EPOCH":15484,"BSTAR":0.00092462,"MEAN_MOTION_DOT":0.00019263,"MEAN_MOTION_DDOT":0},{"OBJECT_NAME":"BLACKJACK ACES-1","OBJECT_ID":"2023-084AA","EPOCH":"2026-03-28T21:25:18.661440","MEAN_MOTION":15.17958034,"ECCENTRICITY":0.0001607,"INCLINATION":97.6056,"RA_OF_ASC_NODE":222.4254,"ARG_OF_PERICENTER":157.7155,"MEAN_ANOMALY":202.4149,"EPHEMERIS_TYPE":0,"CLASSIFICATION_TYPE":"U","NORAD_CAT_ID":56956,"ELEMENT_SET_NO":999,"REV_AT_EPOCH":10471,"BSTAR":0.00014732023,"MEAN_MOTION_DOT":2.922e-5,"MEAN_MOTION_DDOT":0},{"OBJECT_NAME":"ION SCV-011","OBJECT_ID":"2023-084AB","EPOCH":"2026-03-28T11:24:30.658176","MEAN_MOTION":15.27985082,"ECCENTRICITY":0.00065288,"INCLINATION":98.137,"RA_OF_ASC_NODE":267.3268,"ARG_OF_PERICENTER":326.0493,"MEAN_ANOMALY":34.0326,"EPHEMERIS_TYPE":0,"CLASSIFICATION_TYPE":"U","NORAD_CAT_ID":56957,"ELEMENT_SET_NO":999,"REV_AT_EPOCH":15348,"BSTAR":0.00023733982,"MEAN_MOTION_DOT":6.397e-5,"MEAN_MOTION_DDOT":0},{"OBJECT_NAME":"GHOST-3","OBJECT_ID":"2023-084AC","EPOCH":"2026-03-28T22:20:58.353216","MEAN_MOTION":15.45004829,"ECCENTRICITY":0.00067463,"INCLINATION":97.609,"RA_OF_ASC_NODE":232.4231,"ARG_OF_PERICENTER":219.1879,"MEAN_ANOMALY":140.8881,"EPHEMERIS_TYPE":0,"CLASSIFICATION_TYPE":"U","NORAD_CAT_ID":56958,"ELEMENT_SET_NO":999,"REV_AT_EPOCH":15561,"BSTAR":0.00050648972,"MEAN_MOTION_DOT":0.0002385,"MEAN_MOTION_DDOT":0},{"OBJECT_NAME":"TOMORROW-R2","OBJECT_ID":"2023-084AG","EPOCH":"2026-03-28T09:22:52.368096","MEAN_MOTION":15.75824884,"ECCENTRICITY":0.00050668,"INCLINATION":97.5904,"RA_OF_ASC_NODE":242.3599,"ARG_OF_PERICENTER":193.0232,"MEAN_ANOMALY":167.0902,"EPHEMERIS_TYPE":0,"CLASSIFICATION_TYPE":"U","NORAD_CAT_ID":56962,"ELEMENT_SET_NO":999,"REV_AT_EPOCH":15623,"BSTAR":0.00079531599,"MEAN_MOTION_DOT":0.0012367,"MEAN_MOTION_DDOT":0},{"OBJECT_NAME":"AFR-1","OBJECT_ID":"2023-084AJ","EPOCH":"2026-03-28T22:55:33.371904","MEAN_MOTION":15.27771754,"ECCENTRICITY":0.00092641,"INCLINATION":97.6129,"RA_OF_ASC_NODE":222.822,"ARG_OF_PERICENTER":259.5096,"MEAN_ANOMALY":100.5099,"EPHEMERIS_TYPE":0,"CLASSIFICATION_TYPE":"U","NORAD_CAT_ID":56964,"ELEMENT_SET_NO":999,"REV_AT_EPOCH":15497,"BSTAR":0.00024018593,"MEAN_MOTION_DOT":6.445e-5,"MEAN_MOTION_DDOT":0},{"OBJECT_NAME":"METEOR-M2 3","OBJECT_ID":"2023-091A","EPOCH":"2026-03-28T22:17:48.458112","MEAN_MOTION":14.24039559,"ECCENTRICITY":0.00047744,"INCLINATION":98.6172,"RA_OF_ASC_NODE":144.5177,"ARG_OF_PERICENTER":55.316,"MEAN_ANOMALY":304.8468,"EPHEMERIS_TYPE":0,"CLASSIFICATION_TYPE":"U","NORAD_CAT_ID":57166,"ELEMENT_SET_NO":999,"REV_AT_EPOCH":14309,"BSTAR":1.9952373e-5,"MEAN_MOTION_DOT":3.0e-8,"MEAN_MOTION_DDOT":0},{"OBJECT_NAME":"UMKA 1 (RS40S)","OBJECT_ID":"2023-091G","EPOCH":"2026-03-28T22:19:07.016448","MEAN_MOTION":15.19871039,"ECCENTRICITY":0.00139496,"INCLINATION":97.5142,"RA_OF_ASC_NODE":146.9571,"ARG_OF_PERICENTER":45.6892,"MEAN_ANOMALY":314.5484,"EPHEMERIS_TYPE":0,"CLASSIFICATION_TYPE":"U","NORAD_CAT_ID":57172,"ELEMENT_SET_NO":999,"REV_AT_EPOCH":15181,"BSTAR":0.00035277569,"MEAN_MOTION_DOT":7.521e-5,"MEAN_MOTION_DDOT":0},{"OBJECT_NAME":"2023-091H","OBJECT_ID":"2023-091H","EPOCH":"2026-03-28T21:12:20.943072","MEAN_MOTION":15.26867969,"ECCENTRICITY":0.00109176,"INCLINATION":97.5135,"RA_OF_ASC_NODE":150.5006,"ARG_OF_PERICENTER":45.3483,"MEAN_ANOMALY":314.8644,"EPHEMERIS_TYPE":0,"CLASSIFICATION_TYPE":"U","NORAD_CAT_ID":57173,"ELEMENT_SET_NO":999,"REV_AT_EPOCH":15204,"BSTAR":0.00051609187,"MEAN_MOTION_DOT":0.00013581,"MEAN_MOTION_DDOT":0}]
