TELEOS-2                
1 56310U 23057C   26086.24162853  .00000792  00000+0  89486-5 0  9992
2 56310   9.9890  80.8632 0000833 221.6620 138.3530 14.96373585160508
SNIPE 4                 
1 56744U 23072B   26087.87669161  .00025385  00000+0  65576-3 0  9991
2 56744  97.5342 291.4884 0004843 247.4044 112.6689 15.39105806157743
SNIPE 2                 
1 56745U 23072C   26087.93736282  .00030492  00000+0  69624-3 0  9991
2 56745  97.5345 294.0869 0003916 286.7790  73.3027 15.42815127157852
2023-072G               
1 56749U 23072G   26087.92551966  .00033075  00000+0  67531-3 0  9993
2 56749  97.5004 292.8138 0003089 269.1708  90.9187 15.46112442158046
OTTER PUP               
1 56933U 23084B   26087.91350521  .00262400  27450-4  86256-3 0  9998
2 56933  97.5743 245.8935 0003224 230.4122 129.6866 15.90498405156548
GEISAT PRECURSOR        
1 56934U 23084C   26087.92263091  .00011181  00000+0  34872-3 0  9997
2 56934  97.6083 226.3669 0004620 260.8319  99.2400 15.33397849155228
BLACKJACK ACES-3        
1 56950U 23084U   26087.10703575  .00001611  00000+0  80548-4 0  9990
2 56950  97.6084 221.7629 0001686 294.4683  65.6375 15.18924346154866
BLACKJACK ACES-2        
1 56955U 23084Z   26086.91545270  .00019263  00000+0  92462-3 0  9998
2 56955  97.6065 221.6601 0001340 185.7203 174.4016 15.18908924154849
BLACKJACK ACES-1        
1 56956U 23084AA  26087.89257710  .00002922  00000+0  14732-3 0  9994
2 56956  97.6056 222.4254 0001607 157.7155 202.4149 15.17958034104710
ION SCV-011             
1 56957U 23084AB  26087.47535484  .00006397  00000+0  23734-3 0  9998
2 56957  98.1370 267.3268 0006528 326.0493  34.0326 15.27985082153480
GHOST-3                 
1 56958U 23084AC  26087.93123094  .00023850  00000+0  50649-3 0  9998
2 56958  97.6090 232.4231 0006746 219.1879 140.8881 15.45004829155619
TOMORROW-R2             
1 56962U 23084AG  26087.39088389  .00123670  00000+0  79532-3 0  9993
2 56962  97.5904 242.3599 0005066 193.0232 167.0902 15.75824884156239
AFR-1                   
1 56964U 23084AJ  26087.95524736  .00006445  00000+0  24019-3 0  9998
2 56964  97.6129 222.8220 0009264 259.5096 100.5099 15.27771754154977
METEOR-M2 3             
1 57166U 23091A   26087.92903308  .00000003  00000+0  19952-4 0  9999
2 57166  98.6172 144.5177 0004774  55.3160 304.8468 14.24039559143093
UMKA 1 (RS40S)          
1 57172U 23091G   26087.92994232  .00007521  00000+0  35278-3 0  9992
2 57172  97.5142 146.9571 0013949  45.6892 314.5484 15.19871039151814
2023-091H               
1 57173U 23091H   26087.88357573  .00013581  00000+0  51609-3 0  9998
2 57173  97.5135 150.5006 0010917  45.3483 314.8644 15.26867969152048
